[{"OBJECT_NAME":"SKYCRAFT-4B","OBJECT_ID":"2025-154D","EPOCH":"2026-03-09T23:31:04.324224","MEAN_MOTION":14.96290027,"ECCENTRICITY":0.00045249,"INCLINATION":97.6762,"RA_OF_ASC_NODE":135.4663,"ARG_OF_PERICENTER":218.6003,"MEAN_ANOMALY":141.4895,"EPHEMERIS_TYPE":0,"CLASSIFICATION_TYPE":"U","NORAD_CAT_ID":64872,"ELEMENT_SET_NO":999,"REV_AT_EPOCH":3420,"BSTAR":0.00083632264,"MEAN_MOTION_DOT":9.402e-5,"MEAN_MOTION_DDOT":0},{"OBJECT_NAME":"STARLINK-35768","OBJECT_ID":"2025-280M","EPOCH":"2026-03-09T22:51:15.171552","MEAN_MOTION":14.98340428,"ECCENTRICITY":0.00025282,"INCLINATION":70.0022,"RA_OF_ASC_NODE":333.8535,"ARG_OF_PERICENTER":242.7162,"MEAN_ANOMALY":117.374,"EPHEMERIS_TYPE":0,"CLASSIFICATION_TYPE":"U","NORAD_CAT_ID":66832,"ELEMENT_SET_NO":999,"REV_AT_EPOCH":1611,"BSTAR":0.00028168283,"MEAN_MOTION_DOT":3.27e-5,"MEAN_MOTION_DDOT":0}]
